{"fetched_at":"2026-07-18T17:29:59.338Z","source":"https://celestrak.org/NORAD/elements/gp.php?NAME=ICEYE&FORMAT=JSON","constellation":"iceye","records":[{"OBJECT_NAME":"ICEYE-X72","OBJECT_ID":"2026-067CS","EPOCH":"2026-07-18T00:00:02.000160","CLASSIFICATION_TYPE":"U","MEAN_MOTION":14.96655709,"ECCENTRICITY":0.0000606,"INCLINATION":97.7651,"RA_OF_ASC_NODE":156.9505,"ARG_OF_PERICENTER":157.6049,"MEAN_ANOMALY":319.3971,"EPHEMERIS_TYPE":0,"NORAD_CAT_ID":68504,"ELEMENT_SET_NO":999,"REV_AT_EPOCH":576,"BSTAR":-0.0021541066,"MEAN_MOTION_DOT":-0.00024528,"MEAN_MOTION_DDOT":0},{"OBJECT_NAME":"ICEYE-X78","OBJECT_ID":"2026-100R","EPOCH":"2026-07-18T03:08:53.120832","CLASSIFICATION_TYPE":"U","MEAN_MOTION":14.91814999,"ECCENTRICITY":0.0003403,"INCLINATION":97.7329,"RA_OF_ASC_NODE":96.0083,"ARG_OF_PERICENTER":48.8855,"MEAN_ANOMALY":311.2657,"EPHEMERIS_TYPE":0,"NORAD_CAT_ID":68995,"ELEMENT_SET_NO":999,"REV_AT_EPOCH":1131,"BSTAR":0.000059799757,"MEAN_MOTION_DOT":0.00000548,"MEAN_MOTION_DDOT":0},{"OBJECT_NAME":"ICEYE-X82","OBJECT_ID":"2026-100S","EPOCH":"2026-07-18T03:41:34.958112","CLASSIFICATION_TYPE":"U","MEAN_MOTION":14.91431907,"ECCENTRICITY":0.00056281,"INCLINATION":97.7324,"RA_OF_ASC_NODE":95.973,"ARG_OF_PERICENTER":56.6981,"MEAN_ANOMALY":303.4776,"EPHEMERIS_TYPE":0,"NORAD_CAT_ID":68996,"ELEMENT_SET_NO":999,"REV_AT_EPOCH":1131,"BSTAR":0.00011007111,"MEAN_MOTION_DOT":0.00001045,"MEAN_MOTION_DDOT":0}]}
