ICEYE-X72               
1 68504U 26067CS  26199.00002315 -.00024528  00000+0 -21541-2 0  9999
2 68504  97.7651 156.9505 0000606 157.6049 319.3971 14.96655709  5768
ICEYE-X78               
1 68995U 26100R   26199.13117038  .00000548  00000+0  59800-4 0  9999
2 68995  97.7329  96.0083 0003403  48.8855 311.2657 14.91814999 11316
ICEYE-X82               
1 68996U 26100S   26199.15387683  .00001045  00000+0  11007-3 0  9996
2 68996  97.7324  95.9730 0005628  56.6981 303.4776 14.91431907 11316
